{
  "type": "FeatureCollection",
  "features": [
    {
      "type": "Feature",
      "properties": {
        "norad_id": 66493,
        "name": "STARLINK-35597",
        "group": "last-30-days",
        "lat": 27.22395599793724,
        "lon": -34.86434522658231,
        "alt_km": 353.45620580574996,
        "timestamp": "2025-12-03T15:48:01.919526+00:00",
        "meta_object_name": "STARLINK-35597",
        "meta_object_id": "2025-263J",
        "meta_epoch": "2025-12-03T08:00:01.999872",
        "meta_mean_motion": 15.72097203,
        "meta_eccentricity": 0.00016389,
        "meta_inclination": 42.9993,
        "meta_ra_of_asc_node": 180.6087,
        "meta_arg_of_pericenter": 268.7876,
        "meta_mean_anomaly": 188.2671,
        "meta_ephemeris_type": 0,
        "meta_classification_type": "U",
        "meta_norad_cat_id": 66493,
        "meta_element_set_no": 999,
        "meta_rev_at_epoch": 412,
        "meta_bstar": -0.016655747,
        "meta_mean_motion_dot": -0.0199043,
        "meta_mean_motion_ddot": 0,
        "tle_line1": "1 66493U 25263J   25337.33335648 -.01990430  00000+0 -16656-1 0  9993",
        "tle_line2": "2 66493  42.9993 180.6087 0001638 268.7876 188.2671 15.72097203  4124"
      },
      "geometry": {
        "type": "Point",
        "coordinates": [
          -34.86434522658231,
          27.22395599793724
        ]
      }
    },
    {
      "type": "Feature",
      "properties": {
        "norad_id": 66494,
        "name": "STARLINK-35689",
        "group": "last-30-days",
        "lat": 30.38814011393895,
        "lon": -40.338384359939965,
        "alt_km": 353.13860347585796,
        "timestamp": "2025-12-03T15:48:01.919536+00:00",
        "meta_object_name": "STARLINK-35689",
        "meta_object_id": "2025-263K",
        "meta_epoch": "2025-12-03T08:00:01.999872",
        "meta_mean_motion": 15.72097086,
        "meta_eccentricity": 0.00017299,
        "meta_inclination": 42.9992,
        "meta_ra_of_asc_node": 180.624,
        "meta_arg_of_pericenter": 272.3601,
        "meta_mean_anomaly": 178.9416,
        "meta_ephemeris_type": 0,
        "meta_classification_type": "U",
        "meta_norad_cat_id": 66494,
        "meta_element_set_no": 999,
        "meta_rev_at_epoch": 412,
        "meta_bstar": -0.016636438,
        "meta_mean_motion_dot": -0.01988463,
        "meta_mean_motion_ddot": 0,
        "tle_line1": "1 66494U 25263K   25337.33335648 -.01988463  00000+0 -16636-1 0  9995",
        "tle_line2": "2 66494  42.9992 180.6240 0001729 272.3601 178.9416 15.72097086  4125"
      },
      "geometry": {
        "type": "Point",
        "coordinates": [
          -40.338384359939965,
          30.38814011393895
        ]
      }
    },
    {
      "type": "Feature",
      "properties": {
        "norad_id": 66495,
        "name": "STARLINK-35832",
        "group": "last-30-days",
        "lat": 26.121364271117855,
        "lon": -33.10953902887518,
        "alt_km": 353.674305865502,
        "timestamp": "2025-12-03T15:48:01.919545+00:00",
        "meta_object_name": "STARLINK-35832",
        "meta_object_id": "2025-263L",
        "meta_epoch": "2025-12-03T08:00:01.999872",
        "meta_mean_motion": 15.72089394,
        "meta_eccentricity": 0.00016255,
        "meta_inclination": 42.9993,
        "meta_ra_of_asc_node": 180.6037,
        "meta_arg_of_pericenter": 272.7712,
        "meta_mean_anomaly": 186.2065,
        "meta_ephemeris_type": 0,
        "meta_classification_type": "U",
        "meta_norad_cat_id": 66495,
        "meta_element_set_no": 999,
        "meta_rev_at_epoch": 412,
        "meta_bstar": -0.016581684,
        "meta_mean_motion_dot": -0.01982021,
        "meta_mean_motion_ddot": 0,
        "tle_line1": "1 66495U 25263L   25337.33335648 -.01982021  00000+0 -16582-1 0  9990",
        "tle_line2": "2 66495  42.9993 180.6037 0001625 272.7712 186.2065 15.72089394  4128"
      },
      "geometry": {
        "type": "Point",
        "coordinates": [
          -33.10953902887518,
          26.121364271117855
        ]
      }
    },
    {
      "type": "Feature",
      "properties": {
        "norad_id": 66496,
        "name": "STARLINK-35909",
        "group": "last-30-days",
        "lat": 24.99972733792394,
        "lon": -31.390965626800906,
        "alt_km": 353.8781706383743,
        "timestamp": "2025-12-03T15:48:01.919554+00:00",
        "meta_object_name": "STARLINK-35909",
        "meta_object_id": "2025-263M",
        "meta_epoch": "2025-12-03T08:00:01.999872",
        "meta_mean_motion": 15.72097439,
        "meta_eccentricity": 0.00016897,
        "meta_inclination": 42.9993,
        "meta_ra_of_asc_node": 180.5986,
        "meta_arg_of_pericenter": 274.3133,
        "meta_mean_anomaly": 186.5743,
        "meta_ephemeris_type": 0,
        "meta_classification_type": "U",
        "meta_norad_cat_id": 66496,
        "meta_element_set_no": 999,
        "meta_rev_at_epoch": 412,
        "meta_bstar": -0.016644322,
        "meta_mean_motion_dot": -0.01989286,
        "meta_mean_motion_ddot": 0,
        "tle_line1": "1 66496U 25263M   25337.33335648 -.01989286  00000+0 -16644-1 0  9990",
        "tle_line2": "2 66496  42.9993 180.5986 0001689 274.3133 186.5743 15.72097439  4121"
      },
      "geometry": {
        "type": "Point",
        "coordinates": [
          -31.390965626800906,
          24.99972733792394
        ]
      }
    },
    {
      "type": "Feature",
      "properties": {
        "norad_id": 66497,
        "name": "STARLINK-35899",
        "group": "last-30-days",
        "lat": 23.85743297825236,
        "lon": -29.701964563932854,
        "alt_km": 354.03762492628175,
        "timestamp": "2025-12-03T15:48:01.919563+00:00",
        "meta_object_name": "STARLINK-35899",
        "meta_object_id": "2025-263N",
        "meta_epoch": "2025-12-03T08:00:01.999872",
        "meta_mean_motion": 15.72097273,
        "meta_eccentricity": 0.00016148,
        "meta_inclination": 42.9991,
        "meta_ra_of_asc_node": 180.5939,
        "meta_arg_of_pericenter": 276.6988,
        "meta_mean_anomaly": 186.1051,
        "meta_ephemeris_type": 0,
        "meta_classification_type": "U",
        "meta_norad_cat_id": 66497,
        "meta_element_set_no": 999,
        "meta_rev_at_epoch": 412,
        "meta_bstar": -0.01663923,
        "meta_mean_motion_dot": -0.01988674,
        "meta_mean_motion_ddot": 0,
        "tle_line1": "1 66497U 25263N   25337.33335648 -.01988674  00000+0 -16639-1 0  9995",
        "tle_line2": "2 66497  42.9991 180.5939 0001614 276.6988 186.1051 15.72097273  4123"
      },
      "geometry": {
        "type": "Point",
        "coordinates": [
          -29.701964563932854,
          23.85743297825236
        ]
      }
    },
    {
      "type": "Feature",
      "properties": {
        "norad_id": 66498,
        "name": "STARLINK-35907",
        "group": "last-30-days",
        "lat": 22.698432682725592,
        "lon": -28.04486969608659,
        "alt_km": 354.0722552835332,
        "timestamp": "2025-12-03T15:48:01.919571+00:00",
        "meta_object_name": "STARLINK-35907",
        "meta_object_id": "2025-263P",
        "meta_epoch": "2025-12-03T08:00:01.999872",
        "meta_mean_motion": 15.72097847,
        "meta_eccentricity": 0.0001653,
        "meta_inclination": 42.9992,
        "meta_ra_of_asc_node": 180.5889,
        "meta_arg_of_pericenter": 269.4383,
        "meta_mean_anomaly": 195.2841,
        "meta_ephemeris_type": 0,
        "meta_classification_type": "U",
        "meta_norad_cat_id": 66498,
        "meta_element_set_no": 999,
        "meta_rev_at_epoch": 412,
        "meta_bstar": -0.016662921,
        "meta_mean_motion_dot": -0.01991247,
        "meta_mean_motion_ddot": 0,
        "tle_line1": "1 66498U 25263P   25337.33335648 -.01991247  00000+0 -16663-1 0  9993",
        "tle_line2": "2 66498  42.9992 180.5889 0001653 269.4383 195.2841 15.72097847  4126"
      },
      "geometry": {
        "type": "Point",
        "coordinates": [
          -28.04486969608659,
          22.698432682725592
        ]
      }
    },
    {
      "type": "Feature",
      "properties": {
        "norad_id": 66499,
        "name": "STARLINK-35816",
        "group": "last-30-days",
        "lat": 20.32802712860621,
        "lon": -24.808858161272656,
        "alt_km": 354.45935970943174,
        "timestamp": "2025-12-03T15:48:01.919580+00:00",
        "meta_object_name": "STARLINK-35816",
        "meta_object_id": "2025-263Q",
        "meta_epoch": "2025-12-03T08:00:01.999872",
        "meta_mean_motion": 15.72095848,
        "meta_eccentricity": 0.00016342,
        "meta_inclination": 42.999,
        "meta_ra_of_asc_node": 180.5797,
        "meta_arg_of_pericenter": 273.5375,
        "meta_mean_anomaly": 195.0207,
        "meta_ephemeris_type": 0,
        "meta_classification_type": "U",
        "meta_norad_cat_id": 66499,
        "meta_element_set_no": 999,
        "meta_rev_at_epoch": 412,
        "meta_bstar": -0.016643441,
        "meta_mean_motion_dot": -0.01989027,
        "meta_mean_motion_ddot": 0,
        "tle_line1": "1 66499U 25263Q   25337.33335648 -.01989027  00000+0 -16643-1 0  9995",
        "tle_line2": "2 66499  42.9990 180.5797 0001634 273.5375 195.0207 15.72095848  4122"
      },
      "geometry": {
        "type": "Point",
        "coordinates": [
          -24.808858161272656,
          20.32802712860621
        ]
      }
    }
  ]
}